format  = 'OEF2.0'       ! file format
rectype = 'ML'           ! record type (1L/ML)
refsys  = ECLM J2000     ! default reference system
END_OF_HEADER
17188
! Cartesian position and velocity vectors
CAR   9.48649842924545E-01  2.10518549746805E+00  5.28491880272142E-01 -9.18139619332945E-03 -2.20999301595376E-03 -5.13989258942464E-03
MJD     58596.545459791 TDT
MAG  15.832  0.150
! Non-grav parameters: model used, actual number in use, dimension
LSP   0  0    6
! RMS    1.67134E-03   2.47054E-03   4.95309E-04   1.97053E-05   8.18598E-06   5.61359E-06
! EIG   2.15665E-07   2.16913E-07   1.67040E-06   2.50312E-06   4.49415E-06   3.02369E-03
! WEA   0.55275   0.81706   0.16381  -0.00649   0.00258  -0.00185
COV   2.793360921830721E-06  4.129077211699704E-06  8.278164700551163E-07
COV  -3.282393807263830E-08  1.304158240197528E-08 -9.341220984429675E-09
COV   6.103543578420274E-06  1.223660778869183E-06 -4.851186246271153E-08
COV   1.928972241452641E-08 -1.380567691278142E-08  2.453314013945065E-07
COV  -9.727385862289950E-09  3.864975914288400E-09 -2.768301126346868E-09
COV   3.882987135699999E-10 -1.493139851936563E-10  1.105280823641251E-10
COV   6.701022340863074E-11 -4.243546824490874E-11  3.151242030187965E-11
NOR   1.115238559440343E+11 -7.103043275483847E+10 -1.436459722327617E+10
NOR   1.893046108948980E+11  1.110159658743775E+10  2.944467494178103E+10
NOR   5.271921900706497E+10 -2.105163902909066E+10  1.158174918977758E+10
NOR  -1.106588512843742E+11  1.913245278051803E+09  1.557003747041346E+11
NOR   2.946411914610956E+10  1.659078127512184E+09  9.597199680217105E+10
NOR   1.512641317955273E+13 -9.376662593424941E+12 -1.904038584674303E+12
NOR   6.943841118652676E+12 -2.804461477655216E+12  2.093090088506070E+13
!MOID  0.06493    0
!NODES  0.09386  0.64019
17188
! Keplerian elements: a, e, i, long. node, arg. peric., mean anomaly
KEP   2.2042769500165709E+00 0.633968639835437  29.2552924221553 269.8595281360314 287.2215381946196 299.3114779088054
MJD     58596.545459791 TDT
MAG  15.832  0.150
! Non-grav parameters: model used, actual number in use, dimension
LSP   0  0    6
! RMS    1.14755E-02   1.02142E-03   2.65753E-02   7.07348E-03   3.54167E-01   3.47413E-01
! EIG   4.62180E-07   1.67021E-06   1.27749E-05   3.84633E-05   4.15263E-04   1.44140E-02
! WEA   0.79611  -0.06954  -0.03214   0.00810  -0.42875   0.42005
COV   1.316872885426522E-04 -1.151902957256283E-05 -3.045265035296518E-04
COV   7.658230045698340E-05 -4.063872269948836E-03  3.979055383068179E-03
COV   1.043293801765019E-06  2.654258576396447E-05 -6.343306000981656E-06
COV   3.563461640911966E-04 -3.439890102837186E-04  7.062480021378010E-04
COV  -1.798878863108697E-04  9.396928546042996E-03 -9.212303533586593E-03
COV   5.003416537029794E-05 -2.356417551404652E-03  2.354592895193085E-03
COV   1.254342264694170E-01 -1.226953318886563E-01  1.206958064876566E-01
NOR   7.162208771033139E+09 -7.649843987295804E+10  3.979288124466866E+08
NOR   1.107038368965236E+09  8.365439856495593E+08  4.050332130246249E+08
NOR   2.815319790301226E+12  7.942790197358685E+08 -2.316682866537235E+10
NOR  -2.740578981393401E+10 -1.680146435102758E+10  5.615389255392230E+07
NOR   5.132737482792271E+07 -2.088161124843396E+06 -9.693075136166783E+06
NOR   2.519451627922531E+08  2.324455352729423E+08  1.327759114720275E+08
NOR   2.686213007496575E+08  1.626906806116487E+08  1.008178408080384E+08